[{"OBJECT_NAME":"STARLINK-4205","OBJECT_ID":"2022-083AU","EPOCH":"2026-03-09T13:18:00.505728","MEAN_MOTION":15.08845019,"ECCENTRICITY":0.00015817,"INCLINATION":53.2172,"RA_OF_ASC_NODE":174.6696,"ARG_OF_PERICENTER":62.319,"MEAN_ANOMALY":297.7963,"EPHEMERIS_TYPE":0,"CLASSIFICATION_TYPE":"U","NORAD_CAT_ID":53174,"ELEMENT_SET_NO":999,"REV_AT_EPOCH":20119,"BSTAR":2.38264e-6,"MEAN_MOTION_DOT":-2.5e-6,"MEAN_MOTION_DDOT":0},{"OBJECT_NAME":"JILIN-01 KUANFU 02B 5","OBJECT_ID":"2024-169E","EPOCH":"2026-03-09T22:46:28.718400","MEAN_MOTION":15.09244096,"ECCENTRICITY":0.00111722,"INCLINATION":97.556,"RA_OF_ASC_NODE":160.0628,"ARG_OF_PERICENTER":294.0678,"MEAN_ANOMALY":65.9381,"EPHEMERIS_TYPE":0,"CLASSIFICATION_TYPE":"U","NORAD_CAT_ID":61193,"ELEMENT_SET_NO":999,"REV_AT_EPOCH":8086,"BSTAR":0.00034816655,"MEAN_MOTION_DOT":5.486e-5,"MEAN_MOTION_DDOT":0}]
